KUIPER-00061            
1 64521U 25134X   25289.00002315  .00027611  00000+0  36477-2 0  9995
2 64521  51.9001 147.8916 0005832 152.0366 281.9132 14.79788377  5724
KUIPER-00062            
1 64522U 25134Y   25288.93523315  .00005820  00000+0  70801-3 0  9993
2 64522  51.8959 155.1612 0007922 172.3767 187.7319 14.84639736 18615
KUIPER-00063            
1 64523U 25134Z   25288.63134097  .00004384  00000+0  60568-3 0  9999
2 64523  51.8987 159.4474 0004405 110.2718 249.8718 14.79793533 18523
KUIPER-00064            
1 64524U 25134AA  25288.88799383  .00005092  00000+0  70543-3 0  9993
2 64524  51.8983 155.5597 0005467 227.8063 132.2435 14.79382632 18604
KUIPER-00065            
1 64525U 25134AB  25288.93015232  .00000341  00000+0  74082-4 0  9999
2 64525  51.9030 160.3260 0011351 161.7344 198.4029 14.79918587 18525
KUIPER-00066            
1 64526U 25134AC  25288.89191263  .00019995  00000+0  97599-3 0  9996
2 64526  51.8870 146.7686 0004596 172.2772 187.8278 15.18258467 18720
KUIPER-00069            
1 64816U 25151A   25289.00002315 -.00361279  00000+0 -17347-1 0  9998
2 64816  51.8797 205.7446 0008608 132.0108 157.0722 15.19993119  5657
KUIPER-00070            
1 64817U 25151B   25288.53168137  .00003010  00000+0  42355-3 0  9994
2 64817  51.8974 227.4546 0010020 128.7925 231.3934 14.79945507 14921
